CCSDS_OMM_VERS = 2.0
CREATION_DATE  = 
ORIGINATOR     = 

OBJECT_NAME    = IDEFIX & ARIANE 42P R/B
OBJECT_ID      = 2002-021B
CENTER_NAME    = EARTH
REF_FRAME      = TEME
TIME_SYSTEM    = UTC
MEAN_ELEMENT_THEORY = SGP/SGP4

EPOCH          = 2025-12-30T19:59:48.609600
MEAN_MOTION    = 14.30966059
ECCENTRICITY   = .00125156
INCLINATION    = 98.5806
RA_OF_ASC_NODE = 299.2912
ARG_OF_PERICENTER = 34.4170
MEAN_ANOMALY   = 325.7821

EPHEMERIS_TYPE = 0
CLASSIFICATION_TYPE = U
NORAD_CAT_ID   = 27422
ELEMENT_SET_NO = 999
REV_AT_EPOCH   = 23417
BSTAR          = .2530389E-3
MEAN_MOTION_DOT = .622E-5
MEAN_MOTION_DDOT = 0

CCSDS_OMM_VERS = 2.0
CREATION_DATE  = 
ORIGINATOR     = 

OBJECT_NAME    = AQUA
OBJECT_ID      = 2002-022A
CENTER_NAME    = EARTH
REF_FRAME      = TEME
TIME_SYSTEM    = UTC
MEAN_ELEMENT_THEORY = SGP/SGP4

EPOCH          = 2025-12-30T23:04:41.327616
MEAN_MOTION    = 14.61780362
ECCENTRICITY   = .00019168
INCLINATION    = 98.4061
RA_OF_ASC_NODE = 326.1390
ARG_OF_PERICENTER = 95.3188
MEAN_ANOMALY   = 305.7939

EPHEMERIS_TYPE = 0
CLASSIFICATION_TYPE = U
NORAD_CAT_ID   = 27424
ELEMENT_SET_NO = 999
REV_AT_EPOCH   = 25869
BSTAR          = .40087661E-3
MEAN_MOTION_DOT = .1951E-4
MEAN_MOTION_DDOT = 0

CCSDS_OMM_VERS = 2.0
CREATION_DATE  = 
ORIGINATOR     = 

OBJECT_NAME    = CZ-4B R/B
OBJECT_ID      = 2002-024C
CENTER_NAME    = EARTH
REF_FRAME      = TEME
TIME_SYSTEM    = UTC
MEAN_ELEMENT_THEORY = SGP/SGP4

EPOCH          = 2025-12-30T19:49:02.299584
MEAN_MOTION    = 14.14532097
ECCENTRICITY   = .00496033
INCLINATION    = 98.8973
RA_OF_ASC_NODE = 53.5320
ARG_OF_PERICENTER = 217.7541
MEAN_ANOMALY   = 210.6538

EPHEMERIS_TYPE = 0
CLASSIFICATION_TYPE = U
NORAD_CAT_ID   = 27432
ELEMENT_SET_NO = 999
REV_AT_EPOCH   = 21950
BSTAR          = .83659838E-4
MEAN_MOTION_DOT = .118E-5
MEAN_MOTION_DDOT = 0

CCSDS_OMM_VERS = 2.0
CREATION_DATE  = 
ORIGINATOR     = 

OBJECT_NAME    = MIDORI II (ADEOS-II)
OBJECT_ID      = 2002-056A
CENTER_NAME    = EARTH
REF_FRAME      = TEME
TIME_SYSTEM    = UTC
MEAN_ELEMENT_THEORY = SGP/SGP4

EPOCH          = 2025-12-30T20:20:30.266592
MEAN_MOTION    = 14.29221143
ECCENTRICITY   = .00010896
INCLINATION    = 98.7660
RA_OF_ASC_NODE = 317.9012
ARG_OF_PERICENTER = 139.9204
MEAN_ANOMALY   = 220.2058

EPHEMERIS_TYPE = 0
CLASSIFICATION_TYPE = U
NORAD_CAT_ID   = 27597
ELEMENT_SET_NO = 999
REV_AT_EPOCH   = 20046
BSTAR          = .26909376E-3
MEAN_MOTION_DOT = .638E-5
MEAN_MOTION_DDOT = 0

CCSDS_OMM_VERS = 2.0
CREATION_DATE  = 
ORIGINATOR     = 

OBJECT_NAME    = H-2A R/B
OBJECT_ID      = 2002-056E
CENTER_NAME    = EARTH
REF_FRAME      = TEME
TIME_SYSTEM    = UTC
MEAN_ELEMENT_THEORY = SGP/SGP4

EPOCH          = 2025-12-30T21:29:43.417824
MEAN_MOTION    = 14.33695501
ECCENTRICITY   = .00705506
INCLINATION    = 98.3089
RA_OF_ASC_NODE = 322.9320
ARG_OF_PERICENTER = 7.5973
MEAN_ANOMALY   = 51.5571

EPHEMERIS_TYPE = 0
CLASSIFICATION_TYPE = U
NORAD_CAT_ID   = 27601
ELEMENT_SET_NO = 999
REV_AT_EPOCH   = 20425
BSTAR          = .29185639E-3
MEAN_MOTION_DOT = .791E-5
MEAN_MOTION_DDOT = 0

CCSDS_OMM_VERS = 2.0
CREATION_DATE  = 
ORIGINATOR     = 

OBJECT_NAME    = CZ-4B R/B
OBJECT_ID      = 2003-049C
CENTER_NAME    = EARTH
REF_FRAME      = TEME
TIME_SYSTEM    = UTC
MEAN_ELEMENT_THEORY = SGP/SGP4

EPOCH          = 2025-12-30T21:20:20.714496
MEAN_MOTION    = 14.54930064
ECCENTRICITY   = .00493466
INCLINATION    = 98.6802
RA_OF_ASC_NODE = 352.1399
ARG_OF_PERICENTER = 81.8355
MEAN_ANOMALY   = 278.8434

EPHEMERIS_TYPE = 0
CLASSIFICATION_TYPE = U
NORAD_CAT_ID   = 28059
ELEMENT_SET_NO = 999
REV_AT_EPOCH   = 17659
BSTAR          = .20579324E-3
MEAN_MOTION_DOT = .848E-5
MEAN_MOTION_DDOT = 0

CCSDS_OMM_VERS = 2.0
CREATION_DATE  = 
ORIGINATOR     = 

OBJECT_NAME    = CZ-2C R/B
OBJECT_ID      = 2004-012C
CENTER_NAME    = EARTH
REF_FRAME      = TEME
TIME_SYSTEM    = UTC
MEAN_ELEMENT_THEORY = SGP/SGP4

EPOCH          = 2025-12-30T16:18:38.210688
MEAN_MOTION    = 15.56987247
ECCENTRICITY   = .0016616
INCLINATION    = 97.7392
RA_OF_ASC_NODE = 58.7989
ARG_OF_PERICENTER = 201.1139
MEAN_ANOMALY   = 158.9431

EPHEMERIS_TYPE = 0
CLASSIFICATION_TYPE = U
NORAD_CAT_ID   = 28222
ELEMENT_SET_NO = 999
REV_AT_EPOCH   = 19351
BSTAR          = .76597589E-3
MEAN_MOTION_DOT = .55778E-3
MEAN_MOTION_DDOT = 0

CCSDS_OMM_VERS = 2.0
CREATION_DATE  = 
ORIGINATOR     = 

OBJECT_NAME    = SL-16 R/B
OBJECT_ID      = 2004-021B
CENTER_NAME    = EARTH
REF_FRAME      = TEME
TIME_SYSTEM    = UTC
MEAN_ELEMENT_THEORY = SGP/SGP4

EPOCH          = 2025-12-30T10:35:29.984928
MEAN_MOTION    = 14.14583382
ECCENTRICITY   = .00042906
INCLINATION    = 71.0007
RA_OF_ASC_NODE = 17.8165
ARG_OF_PERICENTER = 170.0212
MEAN_ANOMALY   = 190.0997

EPHEMERIS_TYPE = 0
CLASSIFICATION_TYPE = U
NORAD_CAT_ID   = 28353
ELEMENT_SET_NO = 999
REV_AT_EPOCH   = 11304
BSTAR          = .23150461E-3
MEAN_MOTION_DOT = .397E-5
MEAN_MOTION_DDOT = 0

CCSDS_OMM_VERS = 2.0
CREATION_DATE  = 
ORIGINATOR     = 

OBJECT_NAME    = CZ-4B R/B
OBJECT_ID      = 2004-035C
CENTER_NAME    = EARTH
REF_FRAME      = TEME
TIME_SYSTEM    = UTC
MEAN_ELEMENT_THEORY = SGP/SGP4

EPOCH          = 2025-12-30T15:23:54.002400
MEAN_MOTION    = 15.27693614
ECCENTRICITY   = .0032149
INCLINATION    = 97.3596
RA_OF_ASC_NODE = 34.7488
ARG_OF_PERICENTER = 211.0437
MEAN_ANOMALY   = 148.8904

EPHEMERIS_TYPE = 0
CLASSIFICATION_TYPE = U
NORAD_CAT_ID   = 28415
ELEMENT_SET_NO = 999
REV_AT_EPOCH   = 16936
BSTAR          = .46839E-3
MEAN_MOTION_DOT = .12803E-3
MEAN_MOTION_DDOT = 0

CCSDS_OMM_VERS = 2.0
CREATION_DATE  = 
ORIGINATOR     = 

OBJECT_NAME    = CZ-2C R/B
OBJECT_ID      = 2004-046B
CENTER_NAME    = EARTH
REF_FRAME      = TEME
TIME_SYSTEM    = UTC
MEAN_ELEMENT_THEORY = SGP/SGP4

EPOCH          = 2025-12-30T18:27:39.904704
MEAN_MOTION    = 14.26954016
ECCENTRICITY   = .01395474
INCLINATION    = 98.1998
RA_OF_ASC_NODE = 279.0277
ARG_OF_PERICENTER = 359.1967
MEAN_ANOMALY   = 0.8970

EPHEMERIS_TYPE = 0
CLASSIFICATION_TYPE = U
NORAD_CAT_ID   = 28480
ELEMENT_SET_NO = 999
REV_AT_EPOCH   = 9867
BSTAR          = .21126265E-3
MEAN_MOTION_DOT = .528E-5
MEAN_MOTION_DDOT = 0

CCSDS_OMM_VERS = 2.0
CREATION_DATE  = 
ORIGINATOR     = 

OBJECT_NAME    = ARIANE 5 R/B
OBJECT_ID      = 2004-049H
CENTER_NAME    = EARTH
REF_FRAME      = TEME
TIME_SYSTEM    = UTC
MEAN_ELEMENT_THEORY = SGP/SGP4

EPOCH          = 2025-12-30T21:53:53.563200
MEAN_MOTION    = 14.85068772
ECCENTRICITY   = .0083775
INCLINATION    = 98.2526
RA_OF_ASC_NODE = 165.8469
ARG_OF_PERICENTER = 213.3082
MEAN_ANOMALY   = 146.2844

EPHEMERIS_TYPE = 0
CLASSIFICATION_TYPE = U
NORAD_CAT_ID   = 28499
ELEMENT_SET_NO = 999
REV_AT_EPOCH   = 13558
BSTAR          = .27805008E-3
MEAN_MOTION_DOT = .2465E-4
MEAN_MOTION_DDOT = 0

CCSDS_OMM_VERS = 2.0
CREATION_DATE  = 
ORIGINATOR     = 

OBJECT_NAME    = CZ-2D R/B
OBJECT_ID      = 2005-024B
CENTER_NAME    = EARTH
REF_FRAME      = TEME
TIME_SYSTEM    = UTC
MEAN_ELEMENT_THEORY = SGP/SGP4

EPOCH          = 2025-12-30T13:29:15.783936
MEAN_MOTION    = 15.54332184
ECCENTRICITY   = .0003044
INCLINATION    = 97.3628
RA_OF_ASC_NODE = 12.4892
ARG_OF_PERICENTER = 281.8771
MEAN_ANOMALY   = 78.2142

EPHEMERIS_TYPE = 0
CLASSIFICATION_TYPE = U
NORAD_CAT_ID   = 28738
ELEMENT_SET_NO = 999
REV_AT_EPOCH   = 12902
BSTAR          = .66849E-3
MEAN_MOTION_DOT = .43819E-3
MEAN_MOTION_DDOT = 0

